[{"OBJECT_NAME":"SHIYAN-1 (SY-1)","OBJECT_ID":"2004-012A","EPOCH":"2026-03-09T17:40:34.066560","MEAN_MOTION":15.31043463,"ECCENTRICITY":0.00058726,"INCLINATION":97.8764,"RA_OF_ASC_NODE":140.5238,"ARG_OF_PERICENTER":23.6952,"MEAN_ANOMALY":336.4557,"EPHEMERIS_TYPE":0,"CLASSIFICATION_TYPE":"U","NORAD_CAT_ID":28220,"ELEMENT_SET_NO":999,"REV_AT_EPOCH":19586,"BSTAR":0.00054854449,"MEAN_MOTION_DOT":0.00016393,"MEAN_MOTION_DDOT":0},{"OBJECT_NAME":"STARLINK-32873","OBJECT_ID":"2025-022D","EPOCH":"2026-03-09T09:50:43.859040","MEAN_MOTION":15.30199058,"ECCENTRICITY":0.00013557,"INCLINATION":53.1591,"RA_OF_ASC_NODE":131.1802,"ARG_OF_PERICENTER":93.2123,"MEAN_ANOMALY":266.9033,"EPHEMERIS_TYPE":0,"CLASSIFICATION_TYPE":"U","NORAD_CAT_ID":62857,"ELEMENT_SET_NO":999,"REV_AT_EPOCH":6185,"BSTAR":0.00036901474,"MEAN_MOTION_DOT":0.00010585,"MEAN_MOTION_DDOT":0}]
